IRIDIUM 155             
1 43573U 18061E   25097.89507473  .00000617  00000+0  21340-3 0  9990
2 43573  86.3967 238.5241 0001815  91.3963 268.7440 14.34216079350965
IRIDIUM 154             
1 43574U 18061F   25097.80627616  .00000061  00000+0  14898-4 0  9998
2 43574  86.3965 238.6731 0002131  95.1255 265.0184 14.34215281351002
IRIDIUM 163             
1 43575U 18061G   25097.92678870 -.00000172  00000+0 -68364-4 0  9992
2 43575  86.3963 238.5522 0002051  91.0790 269.0641 14.34216525350999
IRIDIUM 156             
1 43576U 18061H   25097.90141669 -.00000047  00000+0 -23771-4 0  9996
2 43576  86.3965 238.5696 0001654  96.7143 263.4241 14.34217384350983
IRIDIUM 164             
1 43577U 18061J   25097.81262200 -.00000156  00000+0 -62907-4 0  9997
2 43577  86.3967 238.6402 0002115 102.4670 257.6763 14.34216758351018
IRIDIUM 159             
1 43578U 18061K   25097.64136992  .00000143  00000+0  44026-4 0  9993
2 43578  86.3963 238.6572 0002330  95.4791 264.6670 14.34218256350959
IRIDIUM 180             
1 43922U 19002A   25097.64086762  .00000140  00000+0  42877-4 0  9990
2 43922  86.4036 175.6318 0002275  93.0261 267.1195 14.34218428326567
IRIDIUM 176             
1 43923U 19002B   25097.82581712  .00001968  00000+0  30805-3 0  9992
2 43923  86.6157 175.5541 0002427  81.2623 278.8869 14.72266484335194
IRIDIUM 168             
1 43924U 19002C   25097.91359777  .00000205  00000+0  66233-4 0  9995
2 43924  86.4038 175.5830 0002287  96.8280 263.3176 14.34218285326584
IRIDIUM 173             
1 43925U 19002D   25097.76137756  .00000057  00000+0  13174-4 0  9991
2 43925  86.4035 175.5534 0002170  91.6813 268.4631 14.34217240326547
IRIDIUM 169             
1 43926U 19002E   25097.76355513  .00000704  00000+0  22377-3 0  9998
2 43926  86.4286 207.1151 0001305  56.2618 303.8705 14.38615276327623
IRIDIUM 172             
1 43927U 19002F   25097.75503544  .00000505  00000+0  17334-3 0  9993
2 43927  86.4034 175.5625 0002497  92.3459 267.8023 14.34217318326550
IRIDIUM 175             
1 43928U 19002G   25097.82064844  .00001827  00000+0  28571-3 0  9990
2 43928  86.1489 132.0979 0001395 107.3798 252.7571 14.72256114335180
IRIDIUM 171             
1 43929U 19002H   25097.94531262 -.00000120  00000+0 -49865-4 0  9994
2 43929  86.4047 175.7406 0002091 107.1507 252.9917 14.34216522326579
IRIDIUM 170             
1 43930U 19002J   25097.62810538  .00002097  00000+0  32855-3 0  9990
2 43930  86.6162 175.6418 0001886  98.5171 261.6260 14.72256283335178
IRIDIUM 167             
1 43931U 19002K   25097.93896929 -.00000073  00000+0 -33022-4 0  9995
2 43931  86.4037 175.5042 0001752 105.9274 254.2115 14.34217045326571
IRIDIUM 181             
1 56726U 23068S   25097.92593372  .00000879  00000+0  25506-3 0  9992
2 56726  86.4502 238.5613 0002179 110.5914 249.5521 14.43307664 99656
IRIDIUM 177             
1 56727U 23068T   25097.63022360  .00002806  00000+0  36587-3 0  9998
2 56727  86.2029 175.5993 0002111 106.3064 253.8389 14.80225980101931
IRIDIUM 174             
1 56728U 23068U   25095.05592673  .00003489  00000+0  45530-3 0  9998
2 56728  86.2033 176.9456 0002820  97.4869 262.6672 14.80257143101553
IRIDIUM 178             
1 56729U 23068V   25097.88972625  .00003002  00000+0  39166-3 0  9990
2 56729  86.6601 207.1455 0002363 101.4110 258.7378 14.80234709101970
IRIDIUM 179             
1 56730U 23068W   25097.88441650  .00002893  00000+0  37701-3 0  9991
2 56730  86.6826 214.8084 0001972  85.8758 274.2689 14.80264851101971
